NORAD_CAT_ID,OBJECT_NAME,OBJECT_TYPE,EPOCH,MEAN_MOTION,ECCENTRICITY,INCLINATION,RA_OF_ASC_NODE,ARG_OF_PERICENTER,MEAN_ANOMALY,BSTAR,MEAN_MOTION_DOT,MEAN_MOTION_DDOT,TLE_LINE0,TLE_LINE1,TLE_LINE2,SEMIMAJOR_AXIS,PERIOD,APOGEE,PERIGEE,DECAYED
53132.0,STARLINK-4063,PAYLOAD,2022-08-09 22:00:00,15.71905104,0.000261,53.2175,291.4021,15.5131,140.3404,-0.0093455,-0.01110497,0.0,0 STARLINK-4063,1 53132U 22083A   22221.91667824 -.01110497  00000-0 -93455-2 0  9994,2 53132  53.2175 291.4021 0002610  15.5131 140.3404 15.71905104  1306,6731.59,91.609,355.211,351.6980000000001,0.0
53132.0,STARLINK-4063,PAYLOAD,2022-08-10 04:00:00,15.71301236,0.0002603,53.2174,290.1657,15.6678,115.4368,-0.0095558,-0.01107032,0.0,0 STARLINK-4063,1 53132U 22083A   22222.16667824 -.01107032  00000-0 -95558-2 0  9999,2 53132  53.2174 290.1657 0002603  15.6678 115.4368 15.71301236  4362,6733.314,91.644,356.932,353.426,0.0
53132.0,STARLINK-4063,PAYLOAD,2022-08-10 14:00:01,15.70291098,0.0001702,53.2176,288.1115,329.1081,359.5421,-0.0098621,-0.0109559,0.0,0 STARLINK-4063,1 53132U 22083A   22222.58334491 -.01095590  00000-0 -98621-2 0  9995,2 53132  53.2176 288.1115 0001702 329.1081 359.5421 15.70291098  1305,6736.201,91.703,359.213,356.92,0.0
53132.0,STARLINK-4063,PAYLOAD,2022-08-10 20:00:01,15.6968964,0.000147,53.2174,286.8779,348.3652,314.0892,-0.010136,-0.01097586,0.0,0 STARLINK-4063,1 53132U 22083A   22222.83334491 -.01097586  00000-0 -10136-1 0  9994,2 53132  53.2174 286.8779 0001470 348.3652 314.0892 15.69689640  4463,6737.922,91.738,360.777,358.797,0.0
53132.0,STARLINK-4063,PAYLOAD,2022-08-10 22:00:00,15.6949779,0.0001654,53.2177,286.4666,2.7213,50.877,-0.010356,-0.01110935,0.0,0 STARLINK-4063,1 53132U 22083A   22222.91667824 -.01110935  00000-0 -10356-1 0  9990,2 53132  53.2177 286.4666 0001654   2.7213  50.8770 15.69497790  1308,6738.471,91.749,361.451,359.222,0.0
53132.0,STARLINK-4063,PAYLOAD,2022-08-11 14:00:01,15.67886688,0.0001277,53.2176,283.188,66.3525,154.2529,-0.010971,-0.01101673,0.0,0 STARLINK-4063,1 53132U 22083A   22223.58334491 -.01101673  00000-0 -10971-1 0  9997,2 53132  53.2176 283.1880 0001277  66.3525 154.2529 15.67886688  1309,6743.0859999999975,91.843,365.81300000000016,364.09,0.0
53132.0,STARLINK-4063,PAYLOAD,2022-08-11 20:00:01,15.67292416,0.0001364,53.2172,281.9589,50.8527,141.3822,-0.011373,-0.01131302,0.0,0 STARLINK-4063,1 53132U 22083A   22223.83334491 -.01131302  00000-0 -11373-1 0  9994,2 53132  53.2172 281.9589 0001364  50.8527 141.3822 15.67292416  4625,6744.791,91.878,367.576,365.736,0.0
53132.0,STARLINK-4063,PAYLOAD,2022-08-12 14:00:01,15.65476384,0.0001324,53.2175,278.2821,51.4851,52.3941,-0.012065,-0.01116247,0.0,0 STARLINK-4063,1 53132U 22083A   22224.58334491 -.01116247  00000-0 -12065-1 0  9997,2 53132  53.2175 278.2821 0001324  51.4851  52.3941 15.65476384  4741,6750.005999999999,91.985,372.765,370.977,0.0
53132.0,STARLINK-4063,PAYLOAD,2022-08-12 22:00:01,15.64676233,0.0001493,53.2176,276.6486,45.4453,137.6608,-0.012509,-0.01120353,0.0,0 STARLINK-4063,1 53132U 22083A   22224.91668981 -.01120353  00000-0 -12509-1 0  9994,2 53132  53.2176 276.6486 0001493  45.4453 137.6608 15.64676233  1309,6752.307,92.032,375.18,373.164,0.0
53132.0,STARLINK-4063,PAYLOAD,2022-08-13 04:00:00,15.64074177,0.000147,53.2177,275.4261,50.2171,101.5614,-0.012804,-0.0111959,0.0,0 STARLINK-4063,1 53132U 22083A   22225.16667824 -.01119590  00000-0 -12804-1 0  9996,2 53132  53.2177 275.4261 0001470  50.2171 101.5614 15.64074177  4831,6754.04,92.067,376.898,374.912,0.0
53132.0,STARLINK-4063,PAYLOAD,2022-08-13 14:00:01,15.63070175,0.0001158,53.2174,273.3936,55.8989,282.5691,-0.013318,-0.01118998,0.0,0 STARLINK-4063,1 53132U 22083A   22225.58334491 -.01118998  00000-0 -13318-1 0  9995,2 53132  53.2174 273.3936 0001158  55.8989 282.5691 15.63070175  1302,6756.932,92.126,379.579,378.014,0.0
53132.0,STARLINK-4063,PAYLOAD,2022-08-13 22:00:00,15.62267132,0.0001152,53.2175,271.766,55.2389,359.4976,-0.013748,-0.0111915,0.0,0 STARLINK-4063,1 53132U 22083A   22225.91667824 -.01119150  00000-0 -13748-1 0  9999,2 53132  53.2175 271.7660 0001152  55.2389 359.4976 15.62267132  1301,6759.246999999999,92.174,381.891,380.333,0.0
53132.0,STARLINK-4063,PAYLOAD,2022-08-14 12:00:00,15.608626199999998,0.0001689,53.2175,268.9279,35.9608,59.9197,-0.014521,-0.01119218,0.0,0 STARLINK-4063,1 53132U 22083A   22226.50001157 -.01119218  00000-0 -14521-1 0  9991,2 53132  53.2175 268.9279 0001689  35.9608  59.9197 15.60862620  5042,6763.301,92.257,386.3080000000001,384.024,0.0
53132.0,STARLINK-4063,PAYLOAD,2022-08-14 14:00:01,15.6065798,0.000138,53.2173,268.5227,56.2462,148.1295,-0.0145389999999999,-0.01112336,0.0,0 STARLINK-4063,1 53132U 22083A   22226.58334491 -.01112336  00000-0 -14539-1 0  9992,2 53132  53.2173 268.5227 0001380  56.2462 148.1295 15.60657980  1307,6763.892,92.269,386.691,384.824,0.0
53132.0,STARLINK-4063,PAYLOAD,2022-08-14 22:00:00,15.59858366,0.0001291,53.2174,266.901,51.6009,226.1475,-0.01508,-0.01118033,0.0,0 STARLINK-4063,1 53132U 22083A   22226.91667824 -.01118033  00000-0 -15080-1 0  9990,2 53132  53.2174 266.9010 0001291  51.6009 226.1475 15.59858366  1303,6766.204000000002,92.316,388.942,387.195,0.0
53132.0,STARLINK-4063,PAYLOAD,2022-08-15 04:00:00,15.59256366,0.0001450999999999,53.2174,265.6876,49.4191,192.7251,-0.015423,-0.01117454,0.0,0 STARLINK-4063,1 53132U 22083A   22227.16667824 -.01117454  00000-0 -15423-1 0  9995,2 53132  53.2174 265.6876 0001451  49.4191 192.7251 15.59256366  5142,6767.945,92.352,390.792,388.828,0.0
53132.0,STARLINK-4063,PAYLOAD,2022-08-15 14:00:01,15.58252004,0.0001262,53.2172,263.6692,50.1215,11.4765,-0.016002,-0.01115914,0.0,0 STARLINK-4063,1 53132U 22083A   22227.58334491 -.01115914  00000-0 -16002-1 0  9995,2 53132  53.2172 263.6692 0001262  50.1215  11.4765 15.58252004  1305,6770.853,92.411,393.572,391.86300000000006,0.0
53132.0,STARLINK-4063,PAYLOAD,2022-08-15 20:00:01,15.57651492,0.0001313,53.2175,262.457,43.2351,341.3126,-0.016427,-0.01119424,0.0,0 STARLINK-4063,1 53132U 22083A   22227.83334491 -.01119424  00000-0 -16427-1 0  9994,2 53132  53.2175 262.4570 0001313  43.2351 341.3126 15.57651492  5247,6772.593000000003,92.447,395.347,393.569,0.0
53132.0,STARLINK-4063,PAYLOAD,2022-08-15 22:00:00,15.57448243,0.0001453999999999,53.2174,262.0534,46.2071,85.8706,-0.016478,-0.01114833,0.0,0 STARLINK-4063,1 53132U 22083A   22227.91667824 -.01114833  00000-0 -16478-1 0  9997,2 53132  53.2174 262.0534 0001454  46.2071  85.8706 15.57448243  1305,6773.182,92.459,396.032,394.062,0.0
53132.0,STARLINK-4063,PAYLOAD,2022-08-16 12:00:00,15.56041282,0.0001568,53.2175,259.2358,47.6957,115.3965,-0.017312,-0.01111384,0.0,0 STARLINK-4063,1 53132U 22083A   22228.50001157 -.01111384  00000-0 -17312-1 0  9990,2 53132  53.2175 259.2358 0001568  47.6957 115.3965 15.56041282  5358,6777.264,92.543,400.192,398.067,0.0
53132.0,STARLINK-4063,PAYLOAD,2022-08-16 14:00:01,15.55843461,0.0001378,53.2172,258.8331,49.7374,220.4002,-0.017503,-0.01114947,0.0,0 STARLINK-4063,1 53132U 22083A   22228.58334491 -.01114947  00000-0 -17503-1 0  9998,2 53132  53.2172 258.8331 0001378  49.7374 220.4002 15.55843461  1305,6777.839,92.554,400.638,398.77,0.0
53132.0,STARLINK-4063,PAYLOAD,2022-08-16 22:00:00,15.55039731,0.0001334,53.2173,257.2231,42.2583,295.4649,-0.018031,-0.01114778,0.0,0 STARLINK-4063,1 53132U 22083A   22228.91667824 -.01114778  00000-0 -18031-1 0  9993,2 53132  53.2173 257.2231 0001334  42.2583 295.4649 15.55039731  1306,6780.174,92.602,402.944,401.135,0.0
53132.0,STARLINK-4063,PAYLOAD,2022-08-17 06:00:02,15.5423918,0.0001591,53.2175,255.618,34.8585,9.5466,-0.018631,-0.01118054,0.0,0 STARLINK-4063,1 53132U 22083A   22229.25002315 -.01118054  00000-0 -18631-1 0  9996,2 53132  53.2175 255.6180 0001591  34.8585   9.5466 15.54239180  5468,6782.502,92.65,405.446,403.288,0.0
53132.0,STARLINK-4063,PAYLOAD,2022-08-17 14:00:01,15.53434861,0.000174,53.2171,254.0146,34.6516,75.3427,-0.019129,-0.01114916,0.0,0 STARLINK-4063,1 53132U 22083A   22229.58334491 -.01114916  00000-0 -19129-1 0  9991,2 53132  53.2171 254.0146 0001740  34.6516  75.3427 15.53434861  1306,6784.843000000003,92.698,407.889,405.528,0.0
53132.0,STARLINK-4063,PAYLOAD,2022-08-18 14:00:01,15.51012591,0.0001549,53.2165,249.2153,43.1957,257.9612,-0.019566,-0.01050734,0.0,0 STARLINK-4063,1 53132U 22083A   22230.58334491 -.01050734  00000-0 -19566-1 0  9995,2 53132  53.2165 249.2153 0001549  43.1957 257.9612 15.51012591  1308,6791.905,92.843,414.822,412.718,0.0
53132.0,STARLINK-4063,PAYLOAD,2022-08-18 22:00:00,15.50145774,0.0001587,53.2173,247.6163,51.8346,311.138,-0.0066371,-0.0036355,0.0,0 STARLINK-4063,1 53132U 22083A   22230.91667824 -.00363550  00000-0 -66371-2 0  9990,2 53132  53.2173 247.6163 0001587  51.8346 311.1380 15.50145774  5724,6794.437,92.894,417.38,415.224,0.0
53132.0,STARLINK-4063,PAYLOAD,2022-08-19 04:00:01,15.49884623,0.0001591,53.2177,246.4219,51.8412,267.031,1.6662e-05,4.94e-06,0.0,0 STARLINK-4063,1 53132U 22083A   22231.16668981  .00000494  00000-0  16662-4 0  9996,2 53132  53.2177 246.4219 0001591  51.8412 267.0310 15.49884623  5763,6795.2,92.91,418.146,415.984,0.0
53132.0,STARLINK-4063,PAYLOAD,2022-08-19 14:00:01,15.49849667,0.0001579,53.2148,244.4386,34.1549,90.6126,0.0002688,0.00014814,0.0,0 STARLINK-4063,1 53132U 22083A   22231.58334491  .00014814  00000-0  26880-3 0  9991,2 53132  53.2148 244.4386 0001579  34.1549  90.6126 15.49849667  5837,6795.302,92.912,418.24,416.094,0.0
53132.0,STARLINK-4063,PAYLOAD,2022-08-19 22:00:00,15.49831973,0.0001376999999999,53.2146,242.8439,40.3146,145.3279,0.00090732,0.00051285,0.0,0 STARLINK-4063,1 53132U 22083A   22231.91667824  .00051285  00000-0  90732-3 0  9997,2 53132  53.2146 242.8439 0001377  40.3146 145.3279 15.49831973  1300,6795.354,92.913,418.155,416.283,0.0
